From: horizons@ssd.jpl.nasa.gov (Horizons Ephemeris System)
Subject: [Horizons] SMALL BODY #C(500@10)_T(NEOWISE (C/2015 X8)) (1/1)
Date: February 23, 2021 at 4:21:03 PM PST

Automated mail xmit by MAIL_REQUEST, PID= 22901 Tue Feb 23 16:21:03 2021
++++++++++++++++++++++++++++++++ (part 1 of 1)  +++++++++++++++++++++++++++++++
*******************************************************************************
JPL/HORIZONS                 NEOWISE (C/2015 X8)           2021-Feb-23 16:21:03
Rec #:90004264 (+COV) Soln.date: 2017-Nov-06_14:28:13    # obs: 116 (2015-2017)

IAU76/J2000 helio. ecliptic osc. elements (au, days, deg., period=Julian yrs):

 EPOCH=  2457409.5 ! 2016-Jan-22.0000000 (TDB)    RMSW= n.a.
  EC= .939109726562653    QR= 1.190270354040523   TP= 2457318.6239227261
  OM= 191.1118811303021   W= 20.40028975883034    IN= 155.2817051165701
  A= 19.54779124559608    MA= 1.036351564479699   ADIST= 37.90531213715164
  PER= 86.42805767166     N= .011404008           ANGMOM= .026133973
  DAN= 1.22756            DDN= 19.26743           L= 172.4455363
  B= 8.3812829            MOID= .21675199         TP= 2015-Oct-23.1239227261

Comet physical (GM= km^3/s^2; RAD= km):
  GM= n.a.                RAD= n.a.
  M1=  13.9     M2=  18.1     k1=  17.    k2=  5.      PHCOF=  .030

Comet non-gravitational force model (AMRAT=m^2/kg;A1-A3=au/d^2;DT=days;R0=au):
  AMRAT=  0.                                      DT=  0.
  A1= 0.                  A2= -4.560261535645E-7  A3= 0.
Standard model:
  ALN=  .1112620426   NK=  4.6142   NM=  2.15     NN=  5.093    R0=  2.808

COMET comments 
1: soln ref.= JPL#22, data arc: 2015-12-14 to 2017-10-27
2: k1=17., k2=5., phase coef.=0.03;
*******************************************************************************


*******************************************************************************
Ephemeris / MAIL_REQUEST Tue Feb 23 16:21:03 2021 Pasadena, USA  / Horizons
*******************************************************************************
Target body name: NEOWISE (C/2015 X8)             {source: JPL#22}
Center body name: Sun (10)                        {source: DE431}
Center-site name: BODY CENTER
*******************************************************************************
Start time      : A.D. 1990-Jan-01 00:00:00.0000 TDB
Stop  time      : A.D. 2020-Dec-31 00:00:00.0000 TDB
Step-size       : 10080 minutes
*******************************************************************************
Center geodetic : 0.00000000,0.00000000,0.0000000 {E-lon(deg),Lat(deg),Alt(km)}
Center cylindric: 0.00000000,0.00000000,0.0000000 {E-lon(deg),Dxy(km),Dz(km)}
Center radii    : 696000.0 x 696000.0 x 696000.0 k{Equator, meridian, pole}    
Small perturbers: Yes                             {source: SB431-N16}
Output units    : AU-D
Output type     : GEOMETRIC cartesian states
Output format   : 6 (LT, range, and range-rate)
Reference frame : Ecliptic of J2000.0
*******************************************************************************
Initial IAU76/J2000 heliocentric ecliptic osculating elements (au, days, deg.):
 EPOCH=  2457409.5 ! 2016-Jan-22.0000000 (TDB)    RMSW= n.a.                  
  EC= .939109726562653    QR= 1.190270354040523   TP= 2457318.6239227261      
  OM= 191.1118811303021   W= 20.40028975883034    IN= 155.2817051165701       
 Equivalent ICRF heliocentric equatorial cartesian coordinates (au, au/d):
  X=-2.476078633176517E-01  Y= 1.172064382045678E+00  Z= 1.320036883958866E+00
 VX= 1.306821071000099E-02 VY= 8.878022533371490E-03 VZ= 8.201932341804035E-03
Comet physical (GM= km^3/s^2; RAD= km):                                        
  GM= n.a.                RAD= n.a.                                           
  M1=  13.9     M2=  18.1     k1=  17.    k2=  5.      PHCOF=  .030           
Comet non-gravitational force model (AMRAT=m^2/kg;A1-A3=au/d^2;DT=days;R0=au): 
  AMRAT=  0.                                      DT=  0.                     
  A1= 0.                  A2= -4.560261535645E-7  A3= 0.                      
Standard model:                                                               
  ALN=  .1112620426   NK=  4.6142   NM=  2.15     NN=  5.093    R0=  2.808    
*******************************************************************************
           JDTDB,            Calendar Date (TDB),                     LT,                     RG,                     RR,
**************************************************************************************************************************
$$SOE
2457440.500000000, A.D. 2016-Feb-22 00:00:00.0000,  1.215546456128466E-02,  2.104653446448379E+00,  1.057647668344098E-02,
2457447.500000000, A.D. 2016-Feb-29 00:00:00.0000,  1.258383105392385E-02,  2.178822805466345E+00,  1.061155159101832E-02,
2457454.500000000, A.D. 2016-Mar-07 00:00:00.0000,  1.301324896306519E-02,  2.253174211608362E+00,  1.062905234889886E-02,
2457461.500000000, A.D. 2016-Mar-14 00:00:00.0000,  1.344307193703089E-02,  2.327595752550601E+00,  1.063205596749926E-02,
2457468.500000000, A.D. 2016-Mar-21 00:00:00.0000,  1.387276702971992E-02,  2.401995151536167E+00,  1.062311212367810E-02,
2457475.500000000, A.D. 2016-Mar-28 00:00:00.0000,  1.430189527576419E-02,  2.476296404067644E+00,  1.060433424656937E-02,
2457482.500000000, A.D. 2016-Apr-04 00:00:00.0000,  1.473009564716967E-02,  2.550437000085619E+00,  1.057747620717221E-02,
2457489.500000000, A.D. 2016-Apr-11 00:00:00.0000,  1.515707186351827E-02,  2.624365640225935E+00,  1.054399690210886E-02,
2457496.500000000, A.D. 2016-Apr-18 00:00:00.0000,  1.558258154151784E-02,  2.698040357122505E+00,  1.050511096030808E-02,
2457503.500000000, A.D. 2016-Apr-25 00:00:00.0000,  1.600642714513425E-02,  2.771426948471259E+00,  1.046182863981264E-02,
2457510.500000000, A.D. 2016-May-02 00:00:00.0000,  1.642844846653594E-02,  2.844497675146052E+00,  1.041499190389056E-02,
2457517.500000000, A.D. 2016-May-09 00:00:00.0000,  1.684851645164050E-02,  2.917230192125189E+00,  1.036530436050128E-02,
2457524.500000000, A.D. 2016-May-16 00:00:00.0000,  1.726652810196220E-02,  2.989606665773692E+00,  1.031335489531101E-02,
2457531.500000000, A.D. 2016-May-23 00:00:00.0000,  1.768240223749275E-02,  3.061613040208849E+00,  1.025963687695539E-02,
2457538.500000000, A.D. 2016-May-30 00:00:00.0000,  1.809607596507046E-02,  3.133238425817276E+00,  1.020456397415838E-02,
2457545.500000000, A.D. 2016-Jun-06 00:00:00.0000,  1.850750172836956E-02,  3.204474588476416E+00,  1.014848319923111E-02,
2457552.500000000, A.D. 2016-Jun-13 00:00:00.0000,  1.891664483735746E-02,  3.275315521793323E+00,  1.009168565663352E-02,
2457559.500000000, A.D. 2016-Jun-20 00:00:00.0000,  1.932348139313003E-02,  3.345757087801017E+00,  1.003441543011965E-02,
2457566.500000000, A.D. 2016-Jun-27 00:00:00.0000,  1.972799654425797E-02,  3.415796715054229E+00,  9.976877242286080E-03,
2457573.500000000, A.D. 2016-Jul-04 00:00:00.0000,  2.013018304500579E-02,  3.485433148992748E+00,  9.919243832545034E-03,
2457580.500000000, A.D. 2016-Jul-11 00:00:00.0000,  2.053004008855468E-02,  3.554666249920228E+00,  9.861661516877592E-03,
2457587.500000000, A.D. 2016-Jul-18 00:00:00.0000,  2.092757227420598E-02,  3.623496814181010E+00,  9.804251591354471E-03,
2457594.500000000, A.D. 2016-Jul-25 00:00:00.0000,  2.132278864713884E-02,  3.691926407899318E+00,  9.747113553516691E-03,
2457601.500000000, A.D. 2016-Aug-01 00:00:00.0000,  2.171570191852736E-02,  3.759957231946715E+00,  9.690329915103634E-03,
2457608.500000000, A.D. 2016-Aug-08 00:00:00.0000,  2.210632784425749E-02,  3.827592014370294E+00,  9.633969158494590E-03,
2457615.500000000, A.D. 2016-Aug-15 00:00:00.0000,  2.249468469920171E-02,  3.894833919366135E+00,  9.578087714657195E-03,
2457622.500000000, A.D. 2016-Aug-22 00:00:00.0000,  2.288079282485121E-02,  3.961686468954256E+00,  9.522731652151648E-03,
2457629.500000000, A.D. 2016-Aug-29 00:00:00.0000,  2.326467424097507E-02,  4.028153475739490E+00,  9.467938154860406E-03,
2457636.500000000, A.D. 2016-Sep-05 00:00:00.0000,  2.364635231262448E-02,  4.094238985255040E+00,  9.413736781742234E-03,
2457643.500000000, A.D. 2016-Sep-12 00:00:00.0000,  2.402585146381883E-02,  4.159947226388772E+00,  9.360150523223721E-03,
2457650.500000000, A.D. 2016-Sep-19 00:00:00.0000,  2.440319693164199E-02,  4.225282568806302E+00,  9.307196790459542E-03,
2457657.500000000, A.D. 2016-Sep-26 00:00:00.0000,  2.477841456729517E-02,  4.290249488504367E+00,  9.254888875870412E-03,
2457664.500000000, A.D. 2016-Oct-03 00:00:00.0000,  2.515153071030221E-02,  4.354852546030152E+00,  9.203237850174911E-03,
2457671.500000000, A.D. 2016-Oct-10 00:00:00.0000,  2.552257209363741E-02,  4.419096370054667E+00,  9.152251622139796E-03,
2457678.500000000, A.D. 2016-Oct-17 00:00:00.0000,  2.589156566828589E-02,  4.482985626996333E+00,  9.101933126163109E-03,
2457685.500000000, A.D. 2016-Oct-24 00:00:00.0000,  2.625853843410166E-02,  4.546524991734953E+00,  9.052282261842043E-03,
2457692.500000000, A.D. 2016-Oct-31 00:00:00.0000,  2.662351735417668E-02,  4.609719132785184E+00,  9.003297406647813E-03,
2457699.500000000, A.D. 2016-Nov-07 00:00:00.0000,  2.698652929950433E-02,  4.672572702715303E+00,  8.954975632719561E-03,
2457706.500000000, A.D. 2016-Nov-14 00:00:00.0000,  2.734760099719175E-02,  4.735090329180454E+00,  8.907312765720682E-03,
2457713.500000000, A.D. 2016-Nov-21 00:00:00.0000,  2.770675898234986E-02,  4.797276606592677E+00,  8.860303504467532E-03,
2457720.500000000, A.D. 2016-Nov-28 00:00:00.0000,  2.806402955521737E-02,  4.859136088697137E+00,  8.813941551000652E-03,
2457727.500000000, A.D. 2016-Dec-05 00:00:00.0000,  2.841943874303958E-02,  4.920673281971664E+00,  8.768219712431533E-03,
2457734.500000000, A.D. 2016-Dec-12 00:00:00.0000,  2.877301226566481E-02,  4.981892639669946E+00,  8.723129997444543E-03,
2457741.500000000, A.D. 2016-Dec-19 00:00:00.0000,  2.912477550858281E-02,  5.042798557153280E+00,  8.678663969227590E-03,
